{
    "links": {
        "self": "http://www.neowsapp.com/rest/v1/neo/54062077?api_key=iIulBulltgU6a56xZRHN4H3l9WmuAYTsLGpBGhQ2"
    },
    "id": "54062077",
    "neo_reference_id": "54062077",
    "name": "(2020 TM4)",
    "designation": "2020 TM4",
    "nasa_jpl_url": "http://ssd.jpl.nasa.gov/sbdb.cgi?sstr=54062077",
    "absolute_magnitude_h": 21.843,
    "estimated_diameter": {
        "kilometers": {
            "estimated_diameter_min": 0.1137509354,
            "estimated_diameter_max": 0.254354824
        },
        "meters": {
            "estimated_diameter_min": 113.7509353895,
            "estimated_diameter_max": 254.3548240351
        },
        "miles": {
            "estimated_diameter_min": 0.0706815325,
            "estimated_diameter_max": 0.1580487114
        },
        "feet": {
            "estimated_diameter_min": 373.1986188632,
            "estimated_diameter_max": 834.4974808873
        }
    },
    "is_potentially_hazardous_asteroid": false,
    "close_approach_data": [
        {
            "close_approach_date": "2020-12-04",
            "close_approach_date_full": "2020-Dec-04 02:08",
            "epoch_date_close_approach": 1607047680000,
            "relative_velocity": {
                "kilometers_per_second": "6.2686604925",
                "kilometers_per_hour": "22567.1777731332",
                "miles_per_hour": "14022.366655756"
            },
            "miss_distance": {
                "astronomical": "0.2006862292",
                "lunar": "78.0669431588",
                "kilometers": "30022232.426651804",
                "miles": "18654950.1883867352"
            },
            "orbiting_body": "Earth"
        },
        {
            "close_approach_date": "2031-09-12",
            "close_approach_date_full": "2031-Sep-12 16:19",
            "epoch_date_close_approach": 1946996340000,
            "relative_velocity": {
                "kilometers_per_second": "3.4636035661",
                "kilometers_per_hour": "12468.9728377974",
                "miles_per_hour": "7747.734816908"
            },
            "miss_distance": {
                "astronomical": "1.3108066814",
                "lunar": "509.9037990646",
                "kilometers": "196093887.519208618",
                "miles": "121847091.5797222084"
            },
            "orbiting_body": "Juptr"
        }
    ],
    "orbital_data": {
        "orbit_id": "13",
        "orbit_determination_date": "2020-12-08 05:23:58",
        "first_observation_date": "2020-10-12",
        "last_observation_date": "2020-12-07",
        "data_arc_in_days": 56,
        "observations_used": 72,
        "orbit_uncertainty": "6",
        "minimum_orbit_intersection": ".187089",
        "jupiter_tisserand_invariant": "3.134",
        "epoch_osculation": "2459000.5",
        "eccentricity": ".5744842486721062",
        "semi_major_axis": "2.629114629946346",
        "inclination": "7.171751387291688",
        "ascending_node_longitude": "359.9541558013859",
        "orbital_period": "1557.086393424508",
        "perihelion_distance": "1.118729687088777",
        "perihelion_argument": "83.35488542053608",
        "aphelion_distance": "4.139499572803914",
        "perihelion_time": "2459194.386927104462",
        "mean_anomaly": "315.1731400053554",
        "mean_motion": ".2312010441554564",
        "equinox": "J2000",
        "orbit_class": {
            "orbit_class_type": "AMO",
            "orbit_class_description": "Near-Earth asteroid orbits similar to that of 1221 Amor",
            "orbit_class_range": "1.017 AU < q (perihelion) < 1.3 AU"
        }
    },
    "is_sentry_object": false
}